0 TIUNGSAT 1
1 26548U 00057D   13282.42873216  .00001091  00000-0  14105-3 0  7663
2 26548 064.5533 238.8674 0040451 234.8344 263.3376 14.85691783705737
0 TIUNGSAT 1
1 26548U 00057D   13283.49997806  .00000993  00000-0  13002-3 0  7679
2 26548 064.5534 235.5395 0040358 234.6892 232.7167 14.85694470705895
0 TIUNGSAT 1
1 26548U 00057D   13286.12113332  .00000938  00000-0  12374-3 0  7698
2 26548 064.5536 227.3968 0040151 234.3200 211.5924 14.85699653706281
0 TIUNGSAT 1
1 26548U 00057D   13287.34288289  .00001098  00000-0  14183-3 0  7707
2 26548 064.5536 223.6014 0040034 234.1398 265.9752 14.85702159706466
0 TIUNGSAT 1
1 26548U 00057D   13288.35409295  .00001567  00000-0  19498-3 0  7717
2 26548 064.5536 220.4602 0039959 233.9871 274.3275 14.85706486706619
0 TIUNGSAT 1
1 26548U 00057D   13289.42227091  .00001103  00000-0  14243-3 0  7728
2 26548 064.5535 217.1420 0039857 233.8515 227.3540 14.85711547706774
0 TIUNGSAT 1
1 26548U 00057D   13291.17390745  .00001191  00000-0  15243-3 0  7739
2 26548 064.5533 211.7006 0039730 233.6138 235.8325 14.85716333707034
0 TIUNGSAT 1
1 26548U 00057D   13292.17654054  .00001254  00000-0  15946-3 0  7747
2 26548 064.5532 208.5860 0039646 233.4746 198.3494 14.85718409707186
0 TIUNGSAT 1
1 26548U 00057D   13293.39656426  .00001327  00000-0  16779-3 0  7754
2 26548 064.5531 204.7960 0039549 233.2845 243.5981 14.85722762707365
0 TIUNGSAT 1
1 26548U 00057D   13294.80110966  .00001359  00000-0  17142-3 0  7766
2 26548 064.5530 200.4327 0039429 233.0783 195.7621 14.85727767707572
0 TIUNGSAT 1
1 26548U 00057D   13295.80955287  .00001340  00000-0  16918-3 0  7771
2 26548 064.5529 197.3000 0039368 232.9567 189.3754 14.85730156707721
